start=new Date('2023-06-22T00:00:00.000Z').valueOf();
sats=[{"OBJECT_TYPE":"PAYLOAD","SEMIMAJOR_AXIS":"6737.191","OBJECT_ID":"2023-078AG","OBJECT_NAME":"STARLINK-6058","MEAN_MOTION_DOT":"0.00046489","MEAN_MOTION_DDOT":"0.0000000000000","LAUNCH_DATE":"2023-05-31","TLE_LINE2":"2 56797  70.0013 353.3842 0003523 273.7911  86.2882 15.69945095  3390","MEAN_ELEMENT_THEORY":"SGP4","INCLINATION":"70.0013","REV_AT_EPOCH":"339","BSTAR":"0.00038591000000","EPHEMERIS_TYPE":"0","ELEMENT_SET_NO":"999","CLASSIFICATION_TYPE":"U","MEAN_ANOMALY":"86.2882","EPOCH":"2023-06-21T14:00:09.444096","RA_OF_ASC_NODE":"353.3842","TLE_LINE1":"1 56797U 23078AG  23172.58344264  .00046489  00000-0  38591-3 0  9995","SITE":"AFWTR","REF_FRAME":"TEME","NORAD_CAT_ID":"56797","RCS_SIZE":"LARGE","PERIOD":"91.723","ARG_OF_PERICENTER":"273.7911","APOAPSIS":"361.430","MEAN_MOTION":"15.69945095","ECCENTRICITY":"0.00035230","FILE":"3939133","GP_ID":"234438814","COUNTRY_CODE":"US","PERIAPSIS":"356.683","DECAY_DATE":null,"CENTER_NAME":"EARTH","TIME_SYSTEM":"UTC"},{"APOAPSIS":"361.527","RA_OF_ASC_NODE":"352.8506","TLE_LINE1":"1 56798U 23078AH  23172.77512052  .00062889  00000-0  52035-3 0  9990","SITE":"AFWTR","REF_FRAME":"TEME","NORAD_CAT_ID":"56798","RCS_SIZE":"LARGE","PERIOD":"91.723","ARG_OF_PERICENTER":"268.4930","TIME_SYSTEM":"UTC","MEAN_MOTION":"15.69947354","FILE":"3939159","ECCENTRICITY":"0.00036770","GP_ID":"234439280","COUNTRY_CODE":"US","PERIAPSIS":"356.572","DECAY_DATE":null,"CENTER_NAME":"EARTH","MEAN_MOTION_DOT":"0.00062889","MEAN_MOTION_DDOT":"0.0000000000000","LAUNCH_DATE":"2023-05-31","TLE_LINE2":"2 56798  70.0010 352.8506 0003677 268.4930  91.5845 15.69947354  3681","OBJECT_TYPE":"PAYLOAD","SEMIMAJOR_AXIS":"6737.185","OBJECT_ID":"2023-078AH","OBJECT_NAME":"STARLINK-6068","ELEMENT_SET_NO":"999","MEAN_ANOMALY":"91.5845","CLASSIFICATION_TYPE":"U","EPOCH":"2023-06-21T18:36:10.412928","MEAN_ELEMENT_THEORY":"SGP4","INCLINATION":"70.0010","REV_AT_EPOCH":"368","BSTAR":"0.00052035000000","EPHEMERIS_TYPE":"0"},{"APOAPSIS":"361.577","NORAD_CAT_ID":"56799","RCS_SIZE":"LARGE","PERIOD":"91.723","ARG_OF_PERICENTER":"269.6808","RA_OF_ASC_NODE":"353.0216","REF_FRAME":"TEME","SITE":"AFWTR","TLE_LINE1":"1 56799U 23078AJ  23172.70950723  .00029427  00000-0  24545-3 0  9991","TIME_SYSTEM":"UTC","PERIAPSIS":"356.555","COUNTRY_CODE":"US","CENTER_NAME":"EARTH","DECAY_DATE":null,"MEAN_MOTION":"15.69941727","GP_ID":"234439285","ECCENTRICITY":"0.00037270","FILE":"3939159","LAUNCH_DATE":"2023-05-31","TLE_LINE2":"2 56799  70.0010 353.0216 0003727 269.6808  90.3960 15.69941727  3678","MEAN_MOTION_DOT":"0.00029427","MEAN_MOTION_DDOT":"0.0000000000000","OBJECT_NAME":"STARLINK-5953","OBJECT_ID":"2023-078AJ","OBJECT_TYPE":"PAYLOAD","SEMIMAJOR_AXIS":"6737.201","MEAN_ANOMALY":"90.3960","CLASSIFICATION_TYPE":"U","ELEMENT_SET_NO":"999","EPOCH":"2023-06-21T17:01:41.424672","BSTAR":"0.00024545000000","EPHEMERIS_TYPE":"0","MEAN_ELEMENT_THEORY":"SGP4","REV_AT_EPOCH":"367","INCLINATION":"70.0010"},{"TLE_LINE2":"2 56800  70.0009 352.8512 0003760 271.4254  88.6511 15.69949497  3683","LAUNCH_DATE":"2023-05-31","MEAN_MOTION_DDOT":"0.0000000000000","MEAN_MOTION_DOT":"0.00036637","OBJECT_NAME":"STARLINK-6036","OBJECT_ID":"2023-078AK","SEMIMAJOR_AXIS":"6737.178","OBJECT_TYPE":"PAYLOAD","EPOCH":"2023-06-21T18:36:01.299456","MEAN_ANOMALY":"88.6511","CLASSIFICATION_TYPE":"U","ELEMENT_SET_NO":"999","BSTAR":"0.00030479000000","EPHEMERIS_TYPE":"0","REV_AT_EPOCH":"368","INCLINATION":"70.0009","MEAN_ELEMENT_THEORY":"SGP4","APOAPSIS":"361.577","PERIOD":"91.723","RCS_SIZE":"LARGE","ARG_OF_PERICENTER":"271.4254","NORAD_CAT_ID":"56800","SITE":"AFWTR","REF_FRAME":"TEME","TLE_LINE1":"1 56800U 23078AK  23172.77501504  .00036637  00000-0  30479-3 0  9994","RA_OF_ASC_NODE":"352.8512","TIME_SYSTEM":"UTC","CENTER_NAME":"EARTH","DECAY_DATE":null,"PERIAPSIS":"356.510","COUNTRY_CODE":"US","GP_ID":"234439786","ECCENTRICITY":"0.00037600","FILE":"3939159","MEAN_MOTION":"15.69949497"},{"LAUNCH_DATE":"2023-05-31","TLE_LINE2":"2 56801  70.0009 353.3827 0003481 275.2797  84.8002 15.69915824  3391","MEAN_MOTION_DOT":"0.00043545","MEAN_MOTION_DDOT":"0.0000000000000","OBJECT_NAME":"STARLINK-6087","OBJECT_ID":"2023-078AL","OBJECT_TYPE":"PAYLOAD","SEMIMAJOR_AXIS":"6737.275","CLASSIFICATION_TYPE":"U","MEAN_ANOMALY":"84.8002","ELEMENT_SET_NO":"999","EPOCH":"2023-06-21T13:59:15.151200","BSTAR":"0.00036215000000","EPHEMERIS_TYPE":"0","MEAN_ELEMENT_THEORY":"SGP4","INCLINATION":"70.0009","REV_AT_EPOCH":"339","APOAPSIS":"361.485","NORAD_CAT_ID":"56801","RCS_SIZE":"LARGE","PERIOD":"91.725","ARG_OF_PERICENTER":"275.2797","RA_OF_ASC_NODE":"353.3827","SITE":"AFWTR","REF_FRAME":"TEME","TLE_LINE1":"1 56801U 23078AL  23172.58281425  .00043545  00000-0  36215-3 0  9991","TIME_SYSTEM":"UTC","PERIAPSIS":"356.795","COUNTRY_CODE":"US","CENTER_NAME":"EARTH","DECAY_DATE":null,"MEAN_MOTION":"15.69915824","GP_ID":"234438506","FILE":"3939133","ECCENTRICITY":"0.00034810"},{"APOAPSIS":"361.451","TLE_LINE1":"1 56802U 23078AM  23172.77469860  .00067363  00000-0  55690-3 0  9996","SITE":"AFWTR","REF_FRAME":"TEME","RA_OF_ASC_NODE":"352.8488","ARG_OF_PERICENTER":"268.7431","RCS_SIZE":"LARGE","PERIOD":"91.723","NORAD_CAT_ID":"56802","TIME_SYSTEM":"UTC","ECCENTRICITY":"0.00035750","FILE":"3939166","GP_ID":"234439390","MEAN_MOTION":"15.69949707","DECAY_DATE":null,"CENTER_NAME":"EARTH","COUNTRY_CODE":"US","PERIAPSIS":"356.634","MEAN_MOTION_DOT":"0.00067363","MEAN_MOTION_DDOT":"0.0000000000000","TLE_LINE2":"2 56802  70.0012 352.8488 0003575 268.7431  91.3355 15.69949707  3682","LAUNCH_DATE":"2023-05-31","SEMIMAJOR_AXIS":"6737.178","OBJECT_TYPE":"PAYLOAD","OBJECT_ID":"2023-078AM","OBJECT_NAME":"STARLINK-6070","EPOCH":"2023-06-21T18:35:33.959040","ELEMENT_SET_NO":"999","MEAN_ANOMALY":"91.3355","CLASSIFICATION_TYPE":"U","INCLINATION":"70.0012","REV_AT_EPOCH":"368","MEAN_ELEMENT_THEORY":"SGP4","EPHEMERIS_TYPE":"0","BSTAR":"0.00055690000000"},{"MEAN_MOTION_DDOT":"0.0000000000000","MEAN_MOTION_DOT":"0.00032118","LAUNCH_DATE":"2023-05-31","TLE_LINE2":"2 56803  70.0010 352.8459 0003645 270.2125  89.8653 15.69943538  3684","OBJECT_TYPE":"PAYLOAD","SEMIMAJOR_AXIS":"6737.196","OBJECT_ID":"2023-078AN","OBJECT_NAME":"STARLINK-6029","ELEMENT_SET_NO":"999","MEAN_ANOMALY":"89.8653","CLASSIFICATION_TYPE":"U","EPOCH":"2023-06-21T18:34:48.479808","MEAN_ELEMENT_THEORY":"SGP4","REV_AT_EPOCH":"368","INCLINATION":"70.0010","BSTAR":"0.00026763000000","EPHEMERIS_TYPE":"0","APOAPSIS":"361.516","RA_OF_ASC_NODE":"352.8459","TLE_LINE1":"1 56803U 23078AN  23172.77417222  .00032118  00000-0  26763-3 0  9991","SITE":"AFWTR","REF_FRAME":"TEME","NORAD_CAT_ID":"56803","ARG_OF_PERICENTER":"270.2125","RCS_SIZE":"LARGE","PERIOD":"91.723","TIME_SYSTEM":"UTC","MEAN_MOTION":"15.69943538","FILE":"3939145","ECCENTRICITY":"0.00036450","GP_ID":"234439028","PERIAPSIS":"356.605","COUNTRY_CODE":"US","DECAY_DATE":null,"CENTER_NAME":"EARTH"},{"TLE_LINE2":"2 56804  70.0011 352.8497 0003602 269.0267  91.0516 15.69950340  3686","LAUNCH_DATE":"2023-05-31","MEAN_MOTION_DOT":"0.00070618","MEAN_MOTION_DDOT":"0.0000000000000","OBJECT_NAME":"STARLINK-6069","OBJECT_ID":"2023-078AP","SEMIMAJOR_AXIS":"6737.176","OBJECT_TYPE":"PAYLOAD","EPOCH":"2023-06-21T18:35:43.084608","MEAN_ANOMALY":"91.0516","CLASSIFICATION_TYPE":"U","ELEMENT_SET_NO":"999","BSTAR":"0.00058348000000","EPHEMERIS_TYPE":"0","INCLINATION":"70.0011","REV_AT_EPOCH":"368","MEAN_ELEMENT_THEORY":"SGP4","APOAPSIS":"361.468","ARG_OF_PERICENTER":"269.0267","RCS_SIZE":"LARGE","PERIOD":"91.723","NORAD_CAT_ID":"56804","REF_FRAME":"TEME","SITE":"AFWTR","TLE_LINE1":"1 56804U 23078AP  23172.77480422  .00070618  00000-0  58348-3 0  9995","RA_OF_ASC_NODE":"352.8497","TIME_SYSTEM":"UTC","CENTER_NAME":"EARTH","DECAY_DATE":null,"PERIAPSIS":"356.614","COUNTRY_CODE":"US","GP_ID":"234439115","FILE":"3939145","ECCENTRICITY":"0.00036020","MEAN_MOTION":"15.69950340"},{"APOAPSIS":"361.610","REF_FRAME":"TEME","SITE":"AFWTR","TLE_LINE1":"1 56805U 23078AQ  23172.58312877  .00001626  00000-0  15287-4 0  9992","RA_OF_ASC_NODE":"353.3839","RCS_SIZE":"LARGE","ARG_OF_PERICENTER":"269.7192","PERIOD":"91.724","NORAD_CAT_ID":"56805","TIME_SYSTEM":"UTC","GP_ID":"234438815","ECCENTRICITY":"0.00037010","FILE":"3939133","MEAN_MOTION":"15.69924009","CENTER_NAME":"EARTH","DECAY_DATE":null,"COUNTRY_CODE":"US","PERIAPSIS":"356.623","MEAN_MOTION_DOT":"0.00001626","MEAN_MOTION_DDOT":"0.0000000000000","TLE_LINE2":"2 56805  70.0006 353.3839 0003701 269.7192  90.3579 15.69924009  3393","LAUNCH_DATE":"2023-05-31","SEMIMAJOR_AXIS":"6737.251","OBJECT_TYPE":"PAYLOAD","OBJECT_NAME":"STARLINK-6064","OBJECT_ID":"2023-078AQ","EPOCH":"2023-06-21T13:59:42.325728","CLASSIFICATION_TYPE":"U","MEAN_ANOMALY":"90.3579","ELEMENT_SET_NO":"999","INCLINATION":"70.0006","REV_AT_EPOCH":"339","MEAN_ELEMENT_THEORY":"SGP4","BSTAR":"0.00001528700000","EPHEMERIS_TYPE":"0"},{"APOAPSIS":"361.472","TLE_LINE1":"1 56806U 23078AR  23172.77448782  .00035058  00000-0  29182-3 0  9993","REF_FRAME":"TEME","SITE":"AFWTR","RA_OF_ASC_NODE":"352.8485","RCS_SIZE":"LARGE","PERIOD":"91.723","ARG_OF_PERICENTER":"270.6032","NORAD_CAT_ID":"56806","TIME_SYSTEM":"UTC","ECCENTRICITY":"0.00035950","FILE":"3939145","GP_ID":"234439114","MEAN_MOTION":"15.69947350","DECAY_DATE":null,"CENTER_NAME":"EARTH","COUNTRY_CODE":"US","PERIAPSIS":"356.628","MEAN_MOTION_DDOT":"0.0000000000000","MEAN_MOTION_DOT":"0.00035058","TLE_LINE2":"2 56806  70.0009 352.8485 0003595 270.6032  89.4751 15.69947350  3680","LAUNCH_DATE":"2023-05-31","SEMIMAJOR_AXIS":"6737.185","OBJECT_TYPE":"PAYLOAD","OBJECT_ID":"2023-078AR","OBJECT_NAME":"STARLINK-6072","EPOCH":"2023-06-21T18:35:15.747648","ELEMENT_SET_NO":"999","CLASSIFICATION_TYPE":"U","MEAN_ANOMALY":"89.4751","INCLINATION":"70.0009","REV_AT_EPOCH":"368","MEAN_ELEMENT_THEORY":"SGP4","BSTAR":"0.00029182000000","EPHEMERIS_TYPE":"0"}];
